CHUBUSAT-2              
1 41338U 16012B   26073.60822802  .00009776  00000+0  43872-3 0  9990
2 41338  30.9966 221.5865 0008663 190.6451 169.4008 15.19833814554018
CHUBUSAT-3              
1 41339U 16012C   26073.66029557  .00006551  00000+0  31138-3 0  9993
2 41339  31.0033 228.6560 0009294 182.1667 177.8934 15.17693173553821
HORYU-4                 
1 41340U 16012D   26073.57392746  .00121667  00000+0  12267-2 0  9995
2 41340  30.9920  33.8282 0003998 201.4323 158.6163 15.63882335555871
ZIYUAN 3-02 (ZY 3-02)   
1 41556U 16033A   26073.60658341  .00008898  00000+0  39622-3 0  9992
2 41556  97.3897 151.1739 0010899 279.1032  80.8970 15.21634810543605
CARTOSAT-2C             
1 41599U 16040A   26073.61131887  .00008435  00000+0  40236-3 0  9999
2 41599  97.4603 134.8357 0010623 105.8077 254.4330 15.19282746539351
LAPAN-A3                
1 41603U 16040E   26073.59591955  .00004901  00000+0  15867-3 0  9994
2 41603  97.1483  72.9028 0010421   6.1400 353.9968 15.32434802540324
GAOFEN-3                
1 41727U 16049A   26073.59132497  .00000055  00000+0  29969-4 0  9997
2 41727  98.4057  82.7922 0001709  86.0694 274.0691 14.42217431505015
PRATHAM                 
1 41783U 16059A   26073.51174260  .00000994  00000+0  18413-3 0  9999
2 41783  97.8320  74.5450 0031815 157.7747 202.4845 14.67049046505630
ALSAT-1N                
1 41789U 16059G   26073.58690323  .00001045  00000+0  18472-3 0  9998
2 41789  97.8039  81.1556 0027045 128.3207 232.0436 14.69128596506118
CAS-2T & KS-1Q          
1 41847U 16066G   26073.48654589  .00001442  00000+0  20981-3 0  9993
2 41847  98.3878 150.2835 0343490  56.9870 306.3834 14.44485346491128
YUNHAI-1 01             
1 41857U 16068A   26073.60515012  .00000233  00000+0  10203-3 0  9990
2 41857  98.5893  85.4733 0004633 325.2207  34.8673 14.32671413488289
RESOURCESAT-2A          
1 41877U 16074A   26073.61753685  .00000433  00000+0  21783-3 0  9997
2 41877  98.7594 147.8718 0002254  24.4736 335.6548 14.21603628480869
TANSAT                  
1 41898U 16081A   26073.59806576  .00000270  00000+0  66873-4 0  9992
2 41898  98.5364  71.0713 0019348 240.2273 119.7002 14.59873394490827
JILIN-1 03              
1 41914U 17002B   26073.57281408  .00018778  00000+0  48520-3 0  9994
2 41914  97.1994  82.1398 0007469 139.2056 220.9750 15.39135540507297
CARTOSAT-2D             
1 41948U 17008A   26071.86645005 -.00000025  00000+0  20080-5 0  9994
2 41948  97.4226 132.9125 0004511 206.0706 154.0302 15.19280641502956
CARTOSAT-2E             
1 42767U 17036C   26073.06902649 -.00000272  00000+0 -97461-5 0  9991
2 42767  97.4397 134.3841 0002580 284.3598  75.7351 15.19224887483702
D-SAT                   
1 42794U 17036AF  26073.40648410  .00009392  00000+0  45381-3 0  9994
2 42794  97.5487  52.7133 0085496 129.1896 231.6971 15.15611427476499
