[{"OBJECT_NAME":"CHUBUSAT-2","OBJECT_ID":"2016-012B","EPOCH":"2026-03-14T14:35:50.900928","MEAN_MOTION":15.19833814,"ECCENTRICITY":0.00086636,"INCLINATION":30.9966,"RA_OF_ASC_NODE":221.5865,"ARG_OF_PERICENTER":190.6451,"MEAN_ANOMALY":169.4008,"EPHEMERIS_TYPE":0,"CLASSIFICATION_TYPE":"U","NORAD_CAT_ID":41338,"ELEMENT_SET_NO":999,"REV_AT_EPOCH":55401,"BSTAR":0.00043872245,"MEAN_MOTION_DOT":9.776e-5,"MEAN_MOTION_DDOT":0},{"OBJECT_NAME":"CHUBUSAT-3","OBJECT_ID":"2016-012C","EPOCH":"2026-03-14T15:50:49.537248","MEAN_MOTION":15.17693173,"ECCENTRICITY":0.00092943,"INCLINATION":31.0033,"RA_OF_ASC_NODE":228.656,"ARG_OF_PERICENTER":182.1667,"MEAN_ANOMALY":177.8934,"EPHEMERIS_TYPE":0,"CLASSIFICATION_TYPE":"U","NORAD_CAT_ID":41339,"ELEMENT_SET_NO":999,"REV_AT_EPOCH":55382,"BSTAR":0.00031137907,"MEAN_MOTION_DOT":6.551e-5,"MEAN_MOTION_DDOT":0},{"OBJECT_NAME":"HORYU-4","OBJECT_ID":"2016-012D","EPOCH":"2026-03-14T13:46:27.332544","MEAN_MOTION":15.63882335,"ECCENTRICITY":0.00039981,"INCLINATION":30.992,"RA_OF_ASC_NODE":33.8282,"ARG_OF_PERICENTER":201.4323,"MEAN_ANOMALY":158.6163,"EPHEMERIS_TYPE":0,"CLASSIFICATION_TYPE":"U","NORAD_CAT_ID":41340,"ELEMENT_SET_NO":999,"REV_AT_EPOCH":55587,"BSTAR":0.0012267309,"MEAN_MOTION_DOT":0.00121667,"MEAN_MOTION_DDOT":0},{"OBJECT_NAME":"ZIYUAN 3-02 (ZY 3-02)","OBJECT_ID":"2016-033A","EPOCH":"2026-03-14T14:33:28.806624","MEAN_MOTION":15.2163481,"ECCENTRICITY":0.00108996,"INCLINATION":97.3897,"RA_OF_ASC_NODE":151.1739,"ARG_OF_PERICENTER":279.1032,"MEAN_ANOMALY":80.897,"EPHEMERIS_TYPE":0,"CLASSIFICATION_TYPE":"U","NORAD_CAT_ID":41556,"ELEMENT_SET_NO":999,"REV_AT_EPOCH":54360,"BSTAR":0.00039622092,"MEAN_MOTION_DOT":8.898e-5,"MEAN_MOTION_DDOT":0},{"OBJECT_NAME":"CARTOSAT-2C","OBJECT_ID":"2016-040A","EPOCH":"2026-03-14T14:40:17.950368","MEAN_MOTION":15.19282746,"ECCENTRICITY":0.00106237,"INCLINATION":97.4603,"RA_OF_ASC_NODE":134.8357,"ARG_OF_PERICENTER":105.8077,"MEAN_ANOMALY":254.433,"EPHEMERIS_TYPE":0,"CLASSIFICATION_TYPE":"U","NORAD_CAT_ID":41599,"ELEMENT_SET_NO":999,"REV_AT_EPOCH":53935,"BSTAR":0.00040236145,"MEAN_MOTION_DOT":8.435e-5,"MEAN_MOTION_DDOT":0},{"OBJECT_NAME":"LAPAN-A3","OBJECT_ID":"2016-040E","EPOCH":"2026-03-14T14:18:07.449120","MEAN_MOTION":15.32434802,"ECCENTRICITY":0.0010421,"INCLINATION":97.1483,"RA_OF_ASC_NODE":72.9028,"ARG_OF_PERICENTER":6.14,"MEAN_ANOMALY":353.9968,"EPHEMERIS_TYPE":0,"CLASSIFICATION_TYPE":"U","NORAD_CAT_ID":41603,"ELEMENT_SET_NO":999,"REV_AT_EPOCH":54032,"BSTAR":0.00015866818,"MEAN_MOTION_DOT":4.901e-5,"MEAN_MOTION_DDOT":0},{"OBJECT_NAME":"GAOFEN-3","OBJECT_ID":"2016-049A","EPOCH":"2026-03-14T14:11:30.477408","MEAN_MOTION":14.42217431,"ECCENTRICITY":0.00017097,"INCLINATION":98.4057,"RA_OF_ASC_NODE":82.7922,"ARG_OF_PERICENTER":86.0694,"MEAN_ANOMALY":274.0691,"EPHEMERIS_TYPE":0,"CLASSIFICATION_TYPE":"U","NORAD_CAT_ID":41727,"ELEMENT_SET_NO":999,"REV_AT_EPOCH":50501,"BSTAR":2.9968953e-5,"MEAN_MOTION_DOT":5.5e-7,"MEAN_MOTION_DDOT":0},{"OBJECT_NAME":"PRATHAM","OBJECT_ID":"2016-059A","EPOCH":"2026-03-14T12:16:54.560640","MEAN_MOTION":14.67049046,"ECCENTRICITY":0.00318152,"INCLINATION":97.832,"RA_OF_ASC_NODE":74.545,"ARG_OF_PERICENTER":157.7747,"MEAN_ANOMALY":202.4845,"EPHEMERIS_TYPE":0,"CLASSIFICATION_TYPE":"U","NORAD_CAT_ID":41783,"ELEMENT_SET_NO":999,"REV_AT_EPOCH":50563,"BSTAR":0.00018412771,"MEAN_MOTION_DOT":9.94e-6,"MEAN_MOTION_DDOT":0},{"OBJECT_NAME":"ALSAT-1N","OBJECT_ID":"2016-059G","EPOCH":"2026-03-14T14:05:08.439072","MEAN_MOTION":14.69128596,"ECCENTRICITY":0.00270458,"INCLINATION":97.8039,"RA_OF_ASC_NODE":81.1556,"ARG_OF_PERICENTER":128.3207,"MEAN_ANOMALY":232.0436,"EPHEMERIS_TYPE":0,"CLASSIFICATION_TYPE":"U","NORAD_CAT_ID":41789,"ELEMENT_SET_NO":999,"REV_AT_EPOCH":50611,"BSTAR":0.00018471594,"MEAN_MOTION_DOT":1.045e-5,"MEAN_MOTION_DDOT":0},{"OBJECT_NAME":"CAS-2T & KS-1Q","OBJECT_ID":"2016-066G","EPOCH":"2026-03-14T11:40:37.564896","MEAN_MOTION":14.44485346,"ECCENTRICITY":0.03434906,"INCLINATION":98.3878,"RA_OF_ASC_NODE":150.2835,"ARG_OF_PERICENTER":56.987,"MEAN_ANOMALY":306.3834,"EPHEMERIS_TYPE":0,"CLASSIFICATION_TYPE":"U","NORAD_CAT_ID":41847,"ELEMENT_SET_NO":999,"REV_AT_EPOCH":49112,"BSTAR":0.00020980509,"MEAN_MOTION_DOT":1.442e-5,"MEAN_MOTION_DDOT":0},{"OBJECT_NAME":"YUNHAI-1 01","OBJECT_ID":"2016-068A","EPOCH":"2026-03-14T14:31:24.970368","MEAN_MOTION":14.32671413,"ECCENTRICITY":0.00046331,"INCLINATION":98.5893,"RA_OF_ASC_NODE":85.4733,"ARG_OF_PERICENTER":325.2207,"MEAN_ANOMALY":34.8673,"EPHEMERIS_TYPE":0,"CLASSIFICATION_TYPE":"U","NORAD_CAT_ID":41857,"ELEMENT_SET_NO":999,"REV_AT_EPOCH":48828,"BSTAR":0.00010203116,"MEAN_MOTION_DOT":2.33e-6,"MEAN_MOTION_DDOT":0},{"OBJECT_NAME":"RESOURCESAT-2A","OBJECT_ID":"2016-074A","EPOCH":"2026-03-14T14:49:15.183840","MEAN_MOTION":14.21603628,"ECCENTRICITY":0.00022544,"INCLINATION":98.7594,"RA_OF_ASC_NODE":147.8718,"ARG_OF_PERICENTER":24.4736,"MEAN_ANOMALY":335.6548,"EPHEMERIS_TYPE":0,"CLASSIFICATION_TYPE":"U","NORAD_CAT_ID":41877,"ELEMENT_SET_NO":999,"REV_AT_EPOCH":48086,"BSTAR":0.00021782911,"MEAN_MOTION_DOT":4.33e-6,"MEAN_MOTION_DDOT":0},{"OBJECT_NAME":"TANSAT","OBJECT_ID":"2016-081A","EPOCH":"2026-03-14T14:21:12.881664","MEAN_MOTION":14.59873394,"ECCENTRICITY":0.00193481,"INCLINATION":98.5364,"RA_OF_ASC_NODE":71.0713,"ARG_OF_PERICENTER":240.2273,"MEAN_ANOMALY":119.7002,"EPHEMERIS_TYPE":0,"CLASSIFICATION_TYPE":"U","NORAD_CAT_ID":41898,"ELEMENT_SET_NO":999,"REV_AT_EPOCH":49082,"BSTAR":6.6872979e-5,"MEAN_MOTION_DOT":2.7e-6,"MEAN_MOTION_DDOT":0},{"OBJECT_NAME":"JILIN-1 03","OBJECT_ID":"2017-002B","EPOCH":"2026-03-14T13:44:51.136512","MEAN_MOTION":15.3913554,"ECCENTRICITY":0.00074691,"INCLINATION":97.1994,"RA_OF_ASC_NODE":82.1398,"ARG_OF_PERICENTER":139.2056,"MEAN_ANOMALY":220.975,"EPHEMERIS_TYPE":0,"CLASSIFICATION_TYPE":"U","NORAD_CAT_ID":41914,"ELEMENT_SET_NO":999,"REV_AT_EPOCH":50729,"BSTAR":0.00048520264,"MEAN_MOTION_DOT":0.00018778,"MEAN_MOTION_DDOT":0},{"OBJECT_NAME":"CARTOSAT-2D","OBJECT_ID":"2017-008A","EPOCH":"2026-03-12T20:47:41.284320","MEAN_MOTION":15.19280641,"ECCENTRICITY":0.00045114,"INCLINATION":97.4226,"RA_OF_ASC_NODE":132.9125,"ARG_OF_PERICENTER":206.0706,"MEAN_ANOMALY":154.0302,"EPHEMERIS_TYPE":0,"CLASSIFICATION_TYPE":"U","NORAD_CAT_ID":41948,"ELEMENT_SET_NO":999,"REV_AT_EPOCH":50295,"BSTAR":2.00802e-6,"MEAN_MOTION_DOT":-2.5e-7,"MEAN_MOTION_DDOT":0},{"OBJECT_NAME":"CARTOSAT-2E","OBJECT_ID":"2017-036C","EPOCH":"2026-03-14T01:39:23.888736","MEAN_MOTION":15.19224887,"ECCENTRICITY":0.00025802,"INCLINATION":97.4397,"RA_OF_ASC_NODE":134.3841,"ARG_OF_PERICENTER":284.3598,"MEAN_ANOMALY":75.7351,"EPHEMERIS_TYPE":0,"CLASSIFICATION_TYPE":"U","NORAD_CAT_ID":42767,"ELEMENT_SET_NO":999,"REV_AT_EPOCH":48370,"BSTAR":-9.746139e-6,"MEAN_MOTION_DOT":-2.72e-6,"MEAN_MOTION_DDOT":0},{"OBJECT_NAME":"D-SAT","OBJECT_ID":"2017-036AF","EPOCH":"2026-03-14T09:45:20.226240","MEAN_MOTION":15.15611427,"ECCENTRICITY":0.00854969,"INCLINATION":97.5487,"RA_OF_ASC_NODE":52.7133,"ARG_OF_PERICENTER":129.1896,"MEAN_ANOMALY":231.6971,"EPHEMERIS_TYPE":0,"CLASSIFICATION_TYPE":"U","NORAD_CAT_ID":42794,"ELEMENT_SET_NO":999,"REV_AT_EPOCH":47649,"BSTAR":0.0004538134,"MEAN_MOTION_DOT":9.392e-5,"MEAN_MOTION_DDOT":0}]
